0 FENGYUN 1C DEB
1 29962U 99025KL  13283.68100432  .00000536  00000-0  34058-3 0  3535
2 29962 099.0873 287.1949 0113868 051.2680 359.4886 14.04940174345475
0 FENGYUN 1C DEB
1 29962U 99025KL  13285.74635000  .00000471  00000-0  30259-3 0  3546
2 29962 099.0871 289.2638 0113819 045.5537 005.5420 14.04942965345769
0 FENGYUN 1C DEB
1 29962U 99025KL  13287.95608187  .00000436  00000-0  28225-3 0  3559
2 29962 099.0870 291.4771 0113780 039.4421 021.8844 14.04946889346077
0 FENGYUN 1C DEB
1 29962U 99025KL  13289.02482130  .00000289  00000-0  19595-3 0  3564
2 29962 099.0871 292.5476 0113771 036.4910 027.3412 14.04948668346228
0 FENGYUN 1C DEB
1 29962U 99025KL  13290.46883800  .00000211  00000-0  15027-3 0  3575
2 29962 099.0872 293.9938 0113742 032.5093 130.8763 14.04950222346424
0 FENGYUN 1C DEB
1 29962U 99025KL  13291.52902633  .00000174  00000-0  12842-3 0  3580
2 29962 099.0873 295.0556 0113713 029.5758 093.1045 14.04951127346571
0 FENGYUN 1C DEB
1 29962U 99025KL  13292.81121589  .00000207  00000-0  14762-3 0  3597
2 29962 099.0874 296.3398 0113666 026.0285 098.1787 14.04951747346750
0 FENGYUN 1C DEB
1 29962U 99025KL  13293.93971347  .00000185  00000-0  13495-3 0  3605
2 29962 099.0874 297.4701 0113614 022.9056 045.9095 14.04952571346910
0 FENGYUN 1C DEB
1 29962U 99025KL  13295.51742565  .00000194  00000-0  14005-3 0  3618
2 29962 099.0874 299.0504 0113531 018.5238 105.7053 14.04953422347130
